NORAD_CAT_ID,OBJECT_NAME,OBJECT_TYPE,EPOCH,MEAN_MOTION,ECCENTRICITY,INCLINATION,RA_OF_ASC_NODE,ARG_OF_PERICENTER,MEAN_ANOMALY,BSTAR,MEAN_MOTION_DOT,MEAN_MOTION_DDOT,TLE_LINE0,TLE_LINE1,TLE_LINE2,SEMIMAJOR_AXIS,PERIOD,APOGEE,PERIGEE,DECAYED
52135.0,STARLINK-3729,PAYLOAD,2023-03-23 03:52:31,15.08840931,0.0001141,53.2148,248.7737,75.8492,284.2627,3.2597e-05,2.31e-06,0.0,0 STARLINK-3729,1 52135U 22029AZ  23082.16147367  .00000231  00000-0  32597-4 0  9997,2 52135  53.2148 248.7737 0001141  75.8492 284.2627 15.08840931 57519,6917.878,95.437,540.532,538.953,0.0
52135.0,STARLINK-3729,PAYLOAD,2023-03-23 10:14:03,15.08838776,4.15e-05,53.2168,247.5863,133.2085,226.8942,8.3327e-05,1.039e-05,0.0,0 STARLINK-3729,1 52135U 22029AZ  23082.42643405  .00001039  00000-0  83327-4 0  9994,2 52135  53.2168 247.5863 0000415 133.2085 226.8942 15.08838776 57558,6917.884,95.438,540.036,539.462,0.0
52135.0,STARLINK-3729,PAYLOAD,2023-03-23 16:35:36,15.08835746,5.92e-05,53.2168,246.396,97.6671,262.4388,3.9055e-05,3.34e-06,0.0,0 STARLINK-3729,1 52135U 22029AZ  23082.69139860  .00000334  00000-0  39055-4 0  9994,2 52135  53.2168 246.3960 0000592  97.6671 262.4388 15.08835746 57591,6917.893,95.438,540.168,539.349,0.0
52135.0,STARLINK-3729,PAYLOAD,2023-03-24 03:43:17,15.08858427,0.0001001,53.2161,244.3137,87.9169,272.1938,0.0002492,3.682e-05,0.0,0 STARLINK-3729,1 52135U 22029AZ  23083.15506192  .00003682  00000-0  24920-3 0  9995,2 52135  53.2161 244.3137 0001001  87.9169 272.1938 15.08858427 57666,6917.824,95.436,540.382,538.997,0.0
52135.0,STARLINK-3729,PAYLOAD,2023-03-24 13:15:35,15.08869632,0.0001086,53.2165,242.5291,89.454,270.6576,0.00053147,8.187e-05,0.0,0 STARLINK-3729,1 52135U 22029AZ  23083.55249595  .00008187  00000-0  53147-3 0  9998,2 52135  53.2165 242.5291 0001086  89.4540 270.6576 15.08869632 57722,6917.79,95.436,540.406,538.904,0.0
52135.0,STARLINK-3729,PAYLOAD,2023-03-24 16:26:21,15.08879819,0.0001096,53.2157,241.9329,99.5735,260.5381,0.00064669,0.0001003,0.0,0 STARLINK-3729,1 52135U 22029AZ  23083.68497069  .00010030  00000-0  64669-3 0  9994,2 52135  53.2157 241.9329 0001096  99.5735 260.5381 15.08879819 57749,6917.759,95.435,540.382,538.865,0.0
52135.0,STARLINK-3729,PAYLOAD,2023-03-25 03:34:03,15.08855877,0.000135,53.2166,239.8536,92.6299,267.4848,0.00014449,2.013e-05,0.0,0 STARLINK-3729,1 52135U 22029AZ  23084.14865563  .00002013  00000-0  14449-3 0  9997,2 52135  53.2166 239.8536 0001350  92.6299 267.4848 15.08855877 57817,6917.832,95.437,540.631,538.763,0.0
52135.0,STARLINK-3729,PAYLOAD,2023-03-25 17:52:32,15.08814209,0.0001212,53.2156,237.1754,113.5114,246.6005,-0.00025017,-4.264e-05,0.0,0 STARLINK-3729,1 52135U 22029AZ  23084.74482632 -.00004264  00000-0 -25017-3 0  9990,2 52135  53.2156 237.1754 0001212 113.5114 246.6005 15.08814209 57903,6917.959,95.439,540.663,538.986,0.0
52135.0,STARLINK-3729,PAYLOAD,2023-03-26 16:07:58,15.08823869,0.0001092,53.2152,233.0131,104.4151,255.6963,0.0011138,0.00017475,0.0,0 STARLINK-3729,1 52135U 22029AZ  23085.67220952  .00017475  00000-0  11138-2 0  9992,2 52135  53.2152 233.0131 0001092 104.4151 255.6963 15.08823869 58040,6917.93,95.439,540.55,539.039,0.0
52135.0,STARLINK-3729,PAYLOAD,2023-03-27 03:15:40,15.08842584,0.0001109,53.215,230.931,103.5125,256.5991,0.0011317,0.0001777,0.0,0 STARLINK-3729,1 52135U 22029AZ  23086.13589011  .00017770  00000-0  11317-2 0  9995,2 52135  53.2150 230.9310 0001109 103.5125 256.5991 15.08842584 58117,6917.872,95.437,540.505,538.97,0.0
52135.0,STARLINK-3729,PAYLOAD,2023-03-27 14:23:22,15.08863856,0.0001056,53.2152,228.8498,98.4369,261.6743,0.0013107,0.00020647,0.0,0 STARLINK-3729,1 52135U 22029AZ  23086.59956543  .00020647  00000-0  13107-2 0  9999,2 52135  53.2152 228.8498 0001056  98.4369 261.6743 15.08863856 58189,6917.807,95.436,540.403,538.942,0.0
52135.0,STARLINK-3729,PAYLOAD,2023-03-27 19:09:31,15.08878202,0.0001103,53.2153,227.958,92.6947,267.4171,0.0016604,0.00026264,0.0,0 STARLINK-3729,1 52135U 22029AZ  23086.79828055  .00026264  00000-0  16604-2 0  9993,2 52135  53.2153 227.9580 0001103  92.6947 267.4171 15.08878202 58217,6917.764,95.435,540.392,538.866,0.0
52135.0,STARLINK-3729,PAYLOAD,2023-03-28 12:38:45,15.08856675,0.0001293,53.2153,224.687,98.8763,261.2376,0.0012636,0.00019889,0.0,0 STARLINK-3729,1 52135U 22029AZ  23087.52692102  .00019889  00000-0  12636-2 0  9993,2 52135  53.2153 224.6870 0001293  98.8763 261.2376 15.08856675 58328,6917.829,95.436,540.589,538.8,0.0
52135.0,STARLINK-3729,PAYLOAD,2023-03-28 14:14:09,15.0885676,0.000115,53.2153,224.3898,88.3281,271.7842,0.001378,0.00021721,0.0,0 STARLINK-3729,1 52135U 22029AZ  23087.59316076  .00021721  00000-0  13780-2 0  9992,2 52135  53.2153 224.3898 0001150  88.3281 271.7842 15.08856760 58336,6917.829,95.436,540.49,538.899,0.0
52135.0,STARLINK-3729,PAYLOAD,2023-03-29 12:29:33,15.0885117,0.0001376,53.2177,220.2276,56.3836,303.7287,0.00069172,0.00010741,0.0,0 STARLINK-3729,1 52135U 22029AZ  23088.52052156  .00010741  00000-0  69172-3 0  9999,2 52135  53.2177 220.2276 0001376  56.3836 303.7287 15.08851170 58472,6917.846,95.437,540.663,538.759,0.0
52135.0,STARLINK-3729,PAYLOAD,2023-03-29 20:26:27,15.08869517,0.0001029,53.2162,218.7373,86.6715,273.4395,0.001074,0.0001686,0.0,0 STARLINK-3729,1 52135U 22029AZ  23088.85171214  .00016860  00000-0  10740-2 0  9996,2 52135  53.2162 218.7373 0001029  86.6715 273.4395 15.08869517 58526,6917.79,95.436,540.367,538.943,0.0
52135.0,STARLINK-3729,PAYLOAD,2023-03-30 09:09:34,15.08820898,0.0001029,53.2186,216.366,26.6395,333.465,-0.00032707,-5.486e-05,0.0,0 STARLINK-3729,1 52135U 22029AZ  23089.38164768 -.00005486  00000-0 -32707-3 0  9993,2 52135  53.2186 216.3660 0001029  26.6395 333.4650 15.08820898 58602,6917.939,95.439,540.516,539.092,0.0
52135.0,STARLINK-3729,PAYLOAD,2023-03-30 13:55:43,15.08849274,0.0001493,53.2163,215.4667,91.6509,268.4654,0.00035639,5.39e-05,0.0,0 STARLINK-3729,1 52135U 22029AZ  23089.58036021  .00005390  00000-0  35639-3 0  9994,2 52135  53.2163 215.4667 0001493  91.6509 268.4654 15.08849274 58631,6917.852,95.437,540.75,538.684,0.0
52135.0,STARLINK-3729,PAYLOAD,2023-03-31 01:03:25,15.08846782,0.0001622,53.2167,213.3875,95.8908,264.2269,0.00037813,5.736e-05,0.0,0 STARLINK-3729,1 52135U 22029AZ  23090.04404162  .00005736  00000-0  37813-3 0  9992,2 52135  53.2167 213.3875 0001622  95.8908 264.2269 15.08846782 58701,6917.86,95.437,540.847,538.603,0.0
52135.0,STARLINK-3729,PAYLOAD,2023-03-31 09:00:21,15.08833366,0.0001902,53.2186,211.9016,104.9926,255.1277,3.288e-05,2.35e-06,0.0,0 STARLINK-3729,1 52135U 22029AZ  23090.37524551  .00000235  00000-0  32880-4 0  9992,2 52135  53.2186 211.9016 0001902 104.9926 255.1277 15.08833366 58753,6917.901,95.438,541.081,538.45,0.0
52135.0,STARLINK-3729,PAYLOAD,2023-03-31 18:32:39,15.0884887,0.0001547,53.2163,210.114,105.3952,254.7211,0.00013648,1.885e-05,0.0,0 STARLINK-3729,1 52135U 22029AZ  23090.77267869  .00001885  00000-0  13648-3 0  9994,2 52135  53.2163 210.1140 0001547 105.3952 254.7211 15.08848870 58812,6917.853,95.437,540.788,538.648,0.0
52135.0,STARLINK-3729,PAYLOAD,2023-04-01 00:54:12,15.08830439,0.0001001,53.2168,208.9274,77.8855,282.2249,-0.0001219,-2.227e-05,0.0,0 STARLINK-3729,1 52135U 22029AZ  23091.03764508 -.00002227  00000-0 -12190-3 0  9990,2 52135  53.2168 208.9274 0001001  77.8855 282.2249 15.08830439 58853,6917.91,95.438,540.467,539.082,0.0
52135.0,STARLINK-3729,PAYLOAD,2023-04-01 12:01:55,15.08824532,0.0001844,53.2195,206.8468,89.8424,270.2779,-9.1272e-05,-1.74e-05,0.0,0 STARLINK-3729,1 52135U 22029AZ  23091.50133869 -.00001740  00000-0 -91272-4 0  9990,2 52135  53.2195 206.8468 0001844  89.8424 270.2779 15.08824532 58925,6917.928,95.439,541.068,538.517,0.0
52135.0,STARLINK-3729,PAYLOAD,2023-04-01 13:37:18,15.08824679,0.0001537,53.219,206.5499,79.1432,280.9733,-8.5555e-05,-1.649e-05,0.0,0 STARLINK-3729,1 52135U 22029AZ  23091.56757875 -.00001649  00000-0 -85555-4 0  9990,2 52135  53.2190 206.5499 0001537  79.1432 280.9733 15.08824679 58932,6917.927,95.439,540.856,538.729,0.0
52135.0,STARLINK-3729,PAYLOAD,2023-04-01 16:48:04,15.08830518,0.0001465,53.2168,205.9528,87.3669,272.7491,9.9327e-06,-1.3e-06,0.0,0 STARLINK-3729,1 52135U 22029AZ  23091.70005654 -.00000130  00000-0  99327-5 0  9993,2 52135  53.2168 205.9528 0001465  87.3669 272.7491 15.08830518 58957,6917.909,95.438,540.788,538.761,0.0
52135.0,STARLINK-3729,PAYLOAD,2023-04-02 00:45:00,15.08835803,0.0001326,53.2165,204.4661,93.2323,266.8821,0.00011732,1.58e-05,0.0,0 STARLINK-3729,1 52135U 22029AZ  23092.03125531  .00001580  00000-0  11732-3 0  9998,2 52135  53.2165 204.4661 0001326  93.2323 266.8821 15.08835803 59005,6917.893,95.438,540.676,538.841,0.0
52135.0,STARLINK-3729,PAYLOAD,2023-04-02 13:28:05,15.08848543,0.0001189,53.2156,202.0874,87.3863,272.7265,0.00040402,6.149e-05,0.0,0 STARLINK-3729,1 52135U 22029AZ  23092.56117245  .00006149  00000-0  40402-3 0  9991,2 52135  53.2156 202.0874 0001189  87.3863 272.7265 15.08848543 59086,6917.854,95.437,540.542,538.897,0.0
52135.0,STARLINK-3729,PAYLOAD,2023-04-02 16:38:51,15.08861052,0.0001388,53.2157,201.4922,90.458,269.6571,0.00081213,0.00012668,0.0,0 STARLINK-3729,1 52135U 22029AZ  23092.69365048  .00012668  00000-0  81213-3 0  9999,2 52135  53.2157 201.4922 0001388  90.4580 269.6571 15.08861052 59104,6917.816,95.436,540.641,538.721,0.0
52135.0,STARLINK-3729,PAYLOAD,2023-04-03 11:43:30,15.08835683,0.0001538,53.2163,197.9255,62.186,297.9288,0.00010663,1.409e-05,0.0,0 STARLINK-3729,1 52135U 22029AZ  23093.48854203  .00001409  00000-0  10663-3 0  9995,2 52135  53.2163 197.9255 0001538  62.1860 297.9288 15.08835683 59226,6917.894,95.438,540.823,538.695,0.0
52135.0,STARLINK-3729,PAYLOAD,2023-04-04 00:26:34,15.08847897,0.0001349,53.2157,195.5459,74.1914,285.9227,0.00085547,0.00013356,0.0,0 STARLINK-3729,1 52135U 22029AZ  23094.01846022  .00013356  00000-0  85547-3 0  9992,2 52135  53.2157 195.5459 0001349  74.1914 285.9227 15.08847897 59301,6917.856,95.437,540.654,538.788,0.0
